{"fetched_at":"2026-07-20T18:29:53.615Z","source":"https://celestrak.org/NORAD/elements/gp.php?NAME=WORLDVIEW&FORMAT=JSON","constellation":"worldview","records":[{"OBJECT_NAME":"WORLDVIEW-1 (WV-1)","OBJECT_ID":"2007-041A","EPOCH":"2026-07-20T07:24:48.930624","CLASSIFICATION_TYPE":"U","MEAN_MOTION":15.24591649,"ECCENTRICITY":0.0002033,"INCLINATION":97.3904,"RA_OF_ASC_NODE":320.5901,"ARG_OF_PERICENTER":185.8978,"MEAN_ANOMALY":174.2236,"EPHEMERIS_TYPE":0,"NORAD_CAT_ID":32060,"ELEMENT_SET_NO":999,"REV_AT_EPOCH":4792,"BSTAR":0.00013746457,"MEAN_MOTION_DOT":0.00003317,"MEAN_MOTION_DDOT":0},{"OBJECT_NAME":"WORLDVIEW-2 (WV-2)","OBJECT_ID":"2009-055A","EPOCH":"2026-07-20T06:52:47.382528","CLASSIFICATION_TYPE":"U","MEAN_MOTION":14.37907834,"ECCENTRICITY":0.0005474,"INCLINATION":98.4752,"RA_OF_ASC_NODE":274.2856,"ARG_OF_PERICENTER":117.7576,"MEAN_ANOMALY":242.4167,"EPHEMERIS_TYPE":0,"NORAD_CAT_ID":35946,"ELEMENT_SET_NO":999,"REV_AT_EPOCH":88040,"BSTAR":0.000029277228,"MEAN_MOTION_DOT":4.5e-7,"MEAN_MOTION_DDOT":0},{"OBJECT_NAME":"WORLDVIEW-3 (WV-3)","OBJECT_ID":"2014-048A","EPOCH":"2026-07-20T06:00:46.446048","CLASSIFICATION_TYPE":"U","MEAN_MOTION":14.85068618,"ECCENTRICITY":0.00016693,"INCLINATION":97.8552,"RA_OF_ASC_NODE":275.6254,"ARG_OF_PERICENTER":148.6953,"MEAN_ANOMALY":211.4362,"EPHEMERIS_TYPE":0,"NORAD_CAT_ID":40115,"ELEMENT_SET_NO":999,"REV_AT_EPOCH":64681,"BSTAR":0.000054440775,"MEAN_MOTION_DOT":0.00000412,"MEAN_MOTION_DDOT":0}]}
