WORLDVIEW-1 (WV-1)      
1 32060U 07041A   26201.30889966  .00003317  00000+0  13746-3 0  9990
2 32060  97.3904 320.5901 0002033 185.8978 174.2236 15.24591649 47922
WORLDVIEW-2 (WV-2)      
1 35946U 09055A   26201.28665952  .00000045  00000+0  29277-4 0  9999
2 35946  98.4752 274.2856 0005474 117.7576 242.4167 14.37907834880404
WORLDVIEW-3 (WV-3)      
1 40115U 14048A   26201.25053757  .00000412  00000+0  54441-4 0  9991
2 40115  97.8552 275.6254 0001669 148.6953 211.4362 14.85068618646819
